NORAD_CAT_ID,OBJECT_NAME,OBJECT_TYPE,EPOCH,MEAN_MOTION,ECCENTRICITY,INCLINATION,RA_OF_ASC_NODE,ARG_OF_PERICENTER,MEAN_ANOMALY,BSTAR,MEAN_MOTION_DOT,MEAN_MOTION_DDOT,TLE_LINE0,TLE_LINE1,TLE_LINE2,SEMIMAJOR_AXIS,PERIOD,APOGEE,PERIGEE,DECAYED
55407.0,STARLINK-5019,PAYLOAD,2024-07-01 08:44:50,14.9833454,0.0003563,69.9993,178.5191,267.8254,92.2497,3.3479e-05,3.06e-06,0.0,0 STARLINK-5019,1 55407U 23014S   24183.36447509  .00000306  00000-0  33479-4 0  9996,2 55407  69.9993 178.5191 0003563 267.8254  92.2497 14.98334540 79731,6950.179,96.107,574.52,569.568,0.0
55407.0,STARLINK-5019,PAYLOAD,2024-07-01 16:45:31,14.98332322,0.0003558,69.9994,177.6774,268.2963,91.7788,3.0625e-05,2.72e-06,0.0,0 STARLINK-5019,1 55407U 23014S   24183.69827590  .00000272  00000-0  30625-4 0  9996,2 55407  69.9994 177.6774 0003558 268.2963  91.7788 14.98332322 79783,6950.186,96.107,574.524,569.578,0.0
55407.0,STARLINK-5019,PAYLOAD,2024-07-02 05:34:35,14.9832694,0.0003528,69.9994,176.3312,268.2241,91.8514,4.056e-05,3.91e-06,0.0,0 STARLINK-5019,1 55407U 23014S   24184.23235966  .00000391  00000-0  40560-4 0  9998,2 55407  69.9994 176.3312 0003528 268.2241  91.8514 14.98326940 78925,6950.202,96.107,574.519,569.615,0.0
55407.0,STARLINK-5019,PAYLOAD,2024-07-02 08:46:51,14.98328233,0.000351,69.9994,175.9944,268.9559,91.1198,5.3478e-05,5.45e-06,0.0,0 STARLINK-5019,1 55407U 23014S   24184.36587873  .00000545  00000-0  53478-4 0  9992,2 55407  69.9994 175.9944 0003510 268.9559  91.1198 14.98328233 79885,6950.198,96.107,574.503,569.624,0.0
55407.0,STARLINK-5019,PAYLOAD,2024-07-02 16:47:32,14.98329421,0.0003508,69.9994,175.1529,269.003,91.0727,4.4242e-05,4.35e-06,0.0,0 STARLINK-5019,1 55407U 23014S   24184.69967827  .00000435  00000-0  44242-4 0  9996,2 55407  69.9994 175.1529 0003508 269.0030  91.0727 14.98329421 79932,6950.195,96.107,574.498,569.622,0.0
55407.0,STARLINK-5019,PAYLOAD,2024-07-03 08:48:52,14.98331662,0.0003458,69.9996,173.4697,268.0958,91.9805,2.9208e-05,2.55e-06,0.0,0 STARLINK-5019,1 55407U 23014S   24185.36727676  .00000255  00000-0  29208-4 0  9992,2 55407  69.9996 173.4697 0003458 268.0958  91.9805 14.98331662 79096,6950.188,96.107,574.456,569.649,0.0
55407.0,STARLINK-5019,PAYLOAD,2024-07-03 16:49:33,14.9833059,0.0003507,69.9995,172.6278,269.1508,90.9249,1.6246e-05,1.01e-06,0.0,0 STARLINK-5019,1 55407U 23014S   24185.70107730  .00000101  00000-0  16246-4 0  9991,2 55407  69.9995 172.6278 0003507 269.1508  90.9249 14.98330590 80080,6950.191,96.107,574.493,569.619,0.0
55407.0,STARLINK-5019,PAYLOAD,2024-07-04 08:50:53,14.98331985,0.0003542,69.9995,170.9446,268.9376,91.1377,5.8599e-05,6.06e-06,0.0,0 STARLINK-5019,1 55407U 23014S   24186.36867484  .00000606  00000-0  58599-4 0  9990,2 55407  69.9995 170.9446 0003542 268.9376  91.1377 14.98331985 79247,6950.187,96.107,574.514,569.59,0.0
55407.0,STARLINK-5019,PAYLOAD,2024-07-04 23:16:06,14.98331247,0.000349,69.9996,169.4296,268.8585,91.2174,3.5491e-05,3.3e-06,0.0,0 STARLINK-5019,1 55407U 23014S   24186.96951552  .00000330  00000-0  35491-4 0  9996,2 55407  69.9996 169.4296 0003490 268.8585  91.2174 14.98331247 80279,6950.189,96.107,574.48,569.628,0.0
55407.0,STARLINK-5019,PAYLOAD,2024-07-05 08:52:54,14.98335351,0.0003474,69.9997,168.4197,268.9363,91.1398,7.1819e-05,7.64e-06,0.0,0 STARLINK-5019,1 55407U 23014S   24187.37007131  .00000764  00000-0  71819-4 0  9992,2 55407  69.9997 168.4197 0003474 268.9363  91.1398 14.98335351 79394,6950.176,96.107,574.456,569.627,0.0
55407.0,STARLINK-5019,PAYLOAD,2024-07-06 05:42:39,14.98330582,0.0003403,69.9998,166.2319,268.658,91.4189,1.2937e-05,6.1e-07,0.0,0 STARLINK-5019,1 55407U 23014S   24188.23795509  .00000061  00000-0  12937-4 0  9997,2 55407  69.9998 166.2319 0003403 268.6580  91.4189 14.98330582 79524,6950.191,96.107,574.421,569.691,0.0
55407.0,STARLINK-5019,PAYLOAD,2024-07-06 08:54:55,14.98330642,0.0003409,69.9998,165.8952,268.7474,91.3295,1.2312e-05,5.4e-07,0.0,0 STARLINK-5019,1 55407U 23014S   24188.37147500  .00000054  00000-0  12312-4 0  9993,2 55407  69.9998 165.8952 0003409 268.7474  91.3295 14.98330642 80482,6950.191,96.107,574.425,569.687,0.0
55407.0,STARLINK-5019,PAYLOAD,2024-07-06 15:19:27,14.98328705,0.0003384,69.9999,165.222,268.9608,91.1163,1.9451e-06,-7e-07,0.0,0 STARLINK-5019,1 55407U 23014S   24188.63851622 -.00000070  00000-0  19451-5 0  9990,2 55407  69.9999 165.2220 0003384 268.9608  91.1163 14.98328705 80522,6950.197,96.107,574.414,569.71,0.0
55407.0,STARLINK-5019,PAYLOAD,2024-07-07 07:20:48,14.98332037,0.0003307,69.9999,163.5393,267.8035,92.2745,1.1149e-05,4e-07,0.0,0 STARLINK-5019,1 55407U 23014S   24189.30611372  .00000040  00000-0  11149-4 0  9992,2 55407  69.9999 163.5393 0003307 267.8035  92.2745 14.98332037 79687,6950.187,96.107,574.35,569.753,0.0
55407.0,STARLINK-5019,PAYLOAD,2024-07-08 08:58:57,14.98331784,0.0003304,69.9998,160.846,269.6442,90.4338,6.7066e-05,7.07e-06,0.0,0 STARLINK-5019,1 55407U 23014S   24190.37427224  .00000707  00000-0  67066-4 0  9991,2 55407  69.9998 160.8460 0003304 269.6442  90.4338 14.98331784 79844,6950.187,96.107,574.349,569.756,0.0
55407.0,STARLINK-5019,PAYLOAD,2024-07-09 04:12:35,14.98320183,0.0003055,70.0002,158.8259,266.8446,93.2363,-5.2311e-05,-7.17e-06,0.0,0 STARLINK-5019,1 55407U 23014S   24191.17540574 -.00000717  00000-0 -52311-4 0  9994,2 55407  70.0002 158.8259 0003055 266.8446  93.2363 14.98320183 79965,6950.223,96.108,574.212,569.965,0.0
55407.0,STARLINK-5019,PAYLOAD,2024-07-09 07:24:51,14.98321772,0.0003027,70.0004,158.4895,267.3449,92.7363,-3.1673e-05,-4.71e-06,0.0,0 STARLINK-5019,1 55407U 23014S   24191.30892496 -.00000471  00000-0 -31673-4 0  9997,2 55407  70.0004 158.4895 0003027 267.3449  92.7363 14.98321772 80924,6950.218,96.108,574.187,569.98,0.0
55407.0,STARLINK-5019,PAYLOAD,2024-07-10 04:14:35,14.983331,0.0003155,69.9998,156.3007,267.4932,92.5865,5.1102e-05,5.17e-06,0.0,0 STARLINK-5019,1 55407U 23014S   24192.17679658  .00000517  00000-0  51102-4 0  9994,2 55407  69.9998 156.3007 0003155 267.4932  92.5865 14.98333100 80119,6950.183,96.107,574.241,569.856,0.0
55407.0,STARLINK-5019,PAYLOAD,2024-07-10 07:26:51,14.98335641,0.0003137,69.9999,155.9642,267.5138,92.5662,7.9131e-05,8.51e-06,0.0,0 STARLINK-5019,1 55407U 23014S   24192.31031399  .00000851  00000-0  79131-4 0  9997,2 55407  69.9999 155.9642 0003137 267.5138  92.5662 14.98335641 81072,6950.175,96.107,574.221,569.86,0.0
55407.0,STARLINK-5019,PAYLOAD,2024-07-11 04:16:35,14.98333805,0.0003205,69.9996,153.7762,268.7679,91.3113,0.00015861,1.8e-05,0.0,0 STARLINK-5019,1 55407U 23014S   24193.17819213  .00001800  00000-0  15861-3 0  9995,2 55407  69.9996 153.7762 0003205 268.7679  91.3113 14.98333805 80265,6950.181,96.107,574.274,569.819,0.0
55407.0,STARLINK-5019,PAYLOAD,2024-07-11 07:28:51,14.98336655,0.000318,69.9997,153.4397,268.6667,91.4128,0.00018551,2.122e-05,0.0,0 STARLINK-5019,1 55407U 23014S   24193.31170923  .00002122  00000-0  18551-3 0  9996,2 55407  69.9997 153.4397 0003180 268.6667  91.4128 14.98336655 81225,6950.172,96.107,574.247,569.827,0.0
55407.0,STARLINK-5019,PAYLOAD,2024-07-12 04:18:37,14.98332304,0.0002923,70.0004,151.2526,265.4375,94.645,-1.9396e-05,-3.24e-06,0.0,0 STARLINK-5019,1 55407U 23014S   24194.17959555 -.00000324  00000-0 -19396-4 0  9990,2 55407  70.0004 151.2526 0002923 265.4375  94.6450 14.98332304 80412,6950.186,96.107,574.082,570.019,0.0
55407.0,STARLINK-5019,PAYLOAD,2024-07-12 13:55:25,14.983346,0.0002805,70.0008,150.2416,272.5862,87.4976,-3.1261e-05,-4.66e-06,0.0,0 STARLINK-5019,1 55407U 23014S   24194.58015442 -.00000466  00000-0 -31261-4 0  9995,2 55407  70.0008 150.2416 0002805 272.5862  87.4976 14.98334600 81417,6950.179,96.107,573.993,570.094,0.0
55407.0,STARLINK-5019,PAYLOAD,2024-07-12 21:56:05,14.98336052,0.0002831,70.0006,149.4003,269.3325,90.751,-2.3044e-05,-3.68e-06,0.0,0 STARLINK-5019,1 55407U 23014S   24194.91395185 -.00000368  00000-0 -23044-4 0  9998,2 55407  70.0006 149.4003 0002831 269.3325  90.7510 14.98336052 81463,6950.174,96.107,574.007,570.072,0.0
55407.0,STARLINK-5019,PAYLOAD,2024-07-13 04:20:37,14.98336243,0.0002871,70.0004,148.7274,266.6015,93.4815,-1.9576e-05,-3.27e-06,0.0,0 STARLINK-5019,1 55407U 23014S   24195.18099052 -.00000327  00000-0 -19576-4 0  9992,2 55407  70.0004 148.7274 0002871 266.6015  93.4815 14.98336243 80563,6950.174,96.107,574.034,570.043,0.0
55407.0,STARLINK-5019,PAYLOAD,2024-07-13 13:57:26,14.98333068,0.0002879,70.0005,147.7173,270.5472,89.5357,-9.1014e-06,-2.02e-06,0.0,0 STARLINK-5019,1 55407U 23014S   24195.58155126 -.00000202  00000-0 -91014-5 0  9991,2 55407  70.0005 147.7173 0002879 270.5472  89.5357 14.98333068 81560,6950.183,96.107,574.049,570.047,0.0
55407.0,STARLINK-5019,PAYLOAD,2024-07-13 20:21:58,14.98325938,0.0002803,70.0006,147.0444,269.7457,90.3381,9.7205e-06,2.3e-07,0.0,0 STARLINK-5019,1 55407U 23014S   24195.84859535  .00000023  00000-0  97205-5 0  9992,2 55407  70.0006 147.0444 0002803 269.7457  90.3381 14.98325938 80669,6950.205,96.107,574.019,570.122,0.0
55407.0,STARLINK-5019,PAYLOAD,2024-07-13 21:58:06,14.98326346,0.0002825,70.0005,146.8764,268.3861,91.6975,1.3752e-05,7.1e-07,0.0,0 STARLINK-5019,1 55407U 23014S   24195.91535495  .00000071  00000-0  13752-4 0  9993,2 55407  70.0005 146.8764 0002825 268.3861  91.6975 14.98326346 81611,6950.204,96.107,574.033,570.106,0.0
55407.0,STARLINK-5019,PAYLOAD,2024-07-14 13:59:26,14.98331934,0.0002803,70.0006,145.1932,269.0803,91.0035,4.8569e-05,4.87e-06,0.0,0 STARLINK-5019,1 55407U 23014S   24196.58295097  .00000487  00000-0  48569-4 0  9993,2 55407  70.0006 145.1932 0002803 269.0803  91.0035 14.98331934 81712,6950.187,96.107,574.0,570.104,0.0
55407.0,STARLINK-5019,PAYLOAD,2024-07-14 22:00:07,14.98334638,0.0002799,70.0005,144.3518,268.9706,91.1133,4.6378e-05,4.61e-06,0.0,0 STARLINK-5019,1 55407U 23014S   24196.91674879  .00000461  00000-0  46378-4 0  9997,2 55407  70.0005 144.3518 0002799 268.9706  91.1133 14.98334638 81765,6950.179,96.107,573.989,570.098,0.0
